#aV2006  3 14  0  0   .00000000      96 DD+AD WGS84 FIT  NGA
## 1366 172800.00000000   900.00000000 53808  .0000000000000
+   29     1  2  3  4  5  6  7  8  9 10 11 13 14 15 16 17 18
+         19 20 21 22 23 24 25 26 27 28 29 30  0  0  0  0  0
+          0  0  0  0  0  0  0  0  0  0  0  0  0  0  0  0  0
+          0  0  0  0  0  0  0  0  0  0  0  0  0  0  0  0  0
+          0  0  0  0  0  0  0  0  0  0  0  0  0  0  0  0  0
++         0  0  0  0  0  0  0  0  0  0  0  0  0  0  0  0  0
++         0  0  0  0  0  0  0  0  0  0  0  0  0  0  0  0  0
++         0  0  0  0  0  0  0  0  0  0  0  0  0  0  0  0  0
++         0  0  0  0  0  0  0  0  0  0  0  0  0  0  0  0  0
++         0  0  0  0  0  0  0  0  0  0  0  0  0  0  0  0  0
%c cc cc ccc ccc cccc cccc cccc cccc ccccc ccccc ccccc ccccc
%c cc cc ccc ccc cccc cccc cccc cccc ccccc ccccc ccccc ccccc
%f  0.0000000  0.000000000  0.00000000000  0.000000000000000
%f  0.0000000  0.000000000  0.00000000000  0.000000000000000
%i    0    0    0    0      0      0      0      0         0
%i    0    0    0    0      0      0      0      0         0
/*      NGA, ST. LOUIS,MO.                                  
/*   EPHEMERIS COMPUTED FROM  3 DAYS OF DATA                
/* CCCCCCCCCCCCCCCCCCCCCCCCCCCCCCCCCCCCCCCCCCCCCCCCCCCCCCCCC
/* CCCCCCCCCCCCCCCCCCCCCCCCCCCCCCCCCCCCCCCCCCCCCCCCCCCCCCCCC
*  2006  3 14 21 45   .00000000                                                 
P  1 -16266.444782  -5852.247576 -19979.012113     41.480855                    
V  1  -8188.171640 -24404.000694  13640.576769       .019203                    
P  2  19756.649901  -6077.128373 -16848.422844    -14.481682                    
V  2 -11111.132077  17911.269519 -19991.025544       .018314                    
P  3 -16839.458303    918.845258  20412.731883     81.884703                    
V  3 -11480.705520 -23745.227044  -8034.719287       .030483                    
P  4  16069.682553   3791.723558 -20907.894157    176.890995                    
V  4 -15919.472572  21104.784026  -8073.352191       .109978                    
P  5  10732.103136 -14112.137807 -19922.687274   -354.928636                    
V  5  24910.746167   2584.005739  11869.528988       .787226                    
P  6  -5022.444831 -24812.567645  -7705.309767    401.968935                    
V  6   7381.603734   7738.757753 -29090.514341       .290525                    
P  7  -3993.404193 -24284.972024  -9549.013593    513.261962                    
V  7   8602.879679   9935.798095 -27937.553365       .064993                    
P  8   8829.826880  12418.084162  21567.537562    -59.458562                    
V  8 -18159.238931  20989.785828  -5008.568454      -.011895                    
P  9  14758.190201 -21886.378682   -797.113529     11.815772                    
V  9   2766.946245   1488.394892  31893.735956       .015987                    
P 10  25131.943585  -2172.083477   8716.693596     80.166132                    
V 10  10669.523663   3590.566222 -29253.190227       .005805                    
P 11 -12651.008584  23201.084234   -365.482423    313.492605                    
V 11  -4554.642551  -2092.536929  30440.363365       .026844                    
P 13   5428.677739  25276.317280  -6305.891489     47.477931                    
V 13  -4446.987831  -6710.456906 -31049.459187       .025686                    
P 14 -15243.514977 -19004.290738 -10563.086579    -17.839043                    
V 14  -3413.517654 -13147.178965  28349.927729       .006812                    
P 15  -8248.262351 -13258.716483  21271.733522    580.372739                    
V 15  18790.526138 -20054.287020  -5549.177705       .059288                    
P 16 -26437.760700  -1943.492162   2430.741442     31.145540                    
V 16  -2581.038245  -3048.437433 -31531.179600       .020078                    
P 17  15198.761159  19840.173918  -9136.436179     67.914769                    
V 17   2142.773145  11620.040580  28771.945993       .063164                    
P 18  -7908.774257 -15696.064623  20092.546996   -225.725728                    
V 18  25013.727220   3402.212144  12273.272928      -.019926                    
P 19 -10300.850738  13793.196595  20317.192121    -18.882247                    
V 19  -9412.927363 -23819.023145  11491.067175       .012409                    
P 20 -10767.538799  13181.348086 -20472.369936    -30.678168                    
V 20 -25503.331001  -4082.384764  10867.939909       .008249                    
P 21   -558.505645 -19537.370916  17791.636233     13.369237                    
V 21  16176.163024 -16144.719798 -17775.498057       .031174                    
P 22 -20382.722272 -12297.906824  11933.847922     76.069512                    
V 22  15118.115829    298.766149  26472.214220       .033223                    
P 23  -3457.809199  20712.021708 -16258.970079    147.173327                    
V 23  -9603.066644 -18230.138141 -21446.420182      -.012787                    
P 24   4540.924756  16380.913806 -20108.507887     92.785368                    
V 24 -17829.072179  19140.236803  11676.772310       .029795                    
P 25 -17021.464267    345.738401 -20012.843231    -26.758983                    
V 25  13039.928162 -22880.848892 -11143.722145       .258385                    
P 26  11748.793564  -8984.596281  21623.773959    -59.756880                    
V 26  10840.451971  26210.495872   5488.706070      -.095119                    
P 27   1721.271539  19973.723445  17845.837940     39.821452                    
V 27 -13524.873599  16972.702435 -18658.330054       .016683                    
P 28  18080.929547  13177.381705  14853.113130     31.523794                    
V 28 -18305.739292   -919.072096  23198.044673      -.008419                    
P 29  13791.904533  -5305.714030  22317.582258    560.496179                    
V 29  10979.580531  25394.205426   -499.852097       .102786                    
P 30   -129.672311 -15752.777325 -21667.649976     27.820030                    
V 30  26808.013042   2393.369224  -1810.342060       .000838                    
EOF
